0 QIANFAN-7
1 60385U 24140G   26182.11535660  .00000611  00000-0  24070-3 0  9993
2 60385  88.9776 270.1380 0017708 101.4280 258.8904 14.27852780 98983
0 STARLINK-34073
1 64606U 25137N   26182.11533642  .00022934  00000-0  78319-3 0  9995
2 64606  53.1560 168.1849 0001327 132.2368 227.8746 15.30236325 57984
0 STARLINK-36253
1 68028U 26040P   26182.11531676  .00105597  00000-0  29591-2 0  9990
2 68028  97.2829 129.6559 0004579 150.3067 209.8437 15.36182508 18783
0 STARLINK-37172
1 68395U 26063R   26182.11529919  .00027276  00000-0  84431-3 0  9991
2 68395  97.2862 324.0906 0003033  85.2970 274.8619 15.33436150 15274
0 STARLINK-34301
1 64349U 25126F   26182.11528345 -.00001012  00000-0 -77091-4 0  9994
2 64349  70.0008 108.4019 0003135 264.9754  95.1047 14.98315730 57677
0 STARLINK-37084
1 68254U 26054Y   26182.11527939  .00030131  00000-0  89873-3 0  9994
2 68254  53.1599 122.4996 0000814 105.2612 254.8481 15.34420675 16468
0 STARLINK-4440
1 53671U 22105Z   26182.11527075 -.00000434  00000-0 -26145-4 0  9994
2 53671  97.2930  60.3657 0002306  86.5765 273.5726 15.05656007210290
0 STARLINK-34776
1 65037U 25161Y   26182.11523399  .00022149  00000-0  75758-3 0  9991
2 65037  53.1599 127.5040 0001085  81.6208 278.4915 15.30205145 51595
0 STARLINK-36200
1 67101U 25298AC  26182.11522991  .00000933  00000-0  86012-4 0  9996
2 67101  70.0038  88.6272 0001998 256.5088 103.5848 14.98318682 30203
0 STARLINK-30975
1 58446U 23183K   26182.11520409 -.00015756  00000-0 -56378-3 0  9993
2 58446  43.0010 120.8394 0001251 240.3541 119.7186 15.27606784144101
0 FENGYUN 1C DEB
1 30370U 99025ACH 26182.11518463  .00002744  00000-0  12428-2 0  9992
2 30370  99.0394 247.3989 0101599 106.2456 328.3273 14.20088515999379
0 ONEWEB-0326
1 49195U 21083K   26182.11518062 -.00000083  00000-0 -24360-3 0  9996
2 49195  87.9182 332.6853 0001812  86.5549 273.5790 13.18685821231837
0 STARLINK-37642
1 69455U 26127N   26182.11506997  .00218661  00000-0  13898-2 0  9999
2 69455  53.1558 192.9300 0001224  86.4493 273.6667 15.75309134  3609
0 STARLINK-34806
1 65065U 25165K   26182.11506549  .00006725  00000-0  46931-3 0  9997
2 65065  97.2911 257.4745 0001806 147.9676 212.1662 15.05667822 51853
0 STARLINK-32489
1 61893U 24204V   26182.11505428 -.00000864  00000-0 -14462-4 0  9995
2 61893  53.1626 318.0985 0000212  79.8618 280.2408 15.34394768 92487
0 STARLINK-36166
1 67084U 25298K   26182.11504932  .00004197  00000-0  35922-3 0  9990
2 67084  70.0020  88.6211 0002314 270.2612  89.8282 14.98342560 30206
0 STARLINK-37312
1 68676U 26077Q   26182.11502352  .00027261  00000-0  84317-3 0  9997
2 68676  97.2870  53.2099 0000667 100.9431 259.1887 15.33465225 12541
0 STARLINK-37542
1 68917U 26097Y   26182.11495747  .00016907  00000-0  52470-3 0  9996
2 68917  97.2844  17.4742 0002280  76.3000 283.8496 15.33451921  9621
0 STARLINK-32043
1 60135U 24120A   26182.11495245  .00000182  00000-0  16535-4 0  9999
2 60135  53.1602 152.2596 0001490  95.3148 264.8024 15.34385749113750
0 STARLINK-3974
1 52634U 22052AN  26182.11493125 -.00001299  00000-0 -63549-4 0  9990
2 52634  53.1612 119.7864 0001281  94.5284 265.5854 15.08831978228119
0 STARLINK-3761
1 52262U 22041B   26182.11491684  .00001025  00000-0  82501-4 0  9997
2 52262  53.1602 319.7043 0001004  95.0841 265.0265 15.08839998231489
0 ONEWEB-0327
1 49196U 21083L   26182.11489997 -.00000059  00000-0 -18287-3 0  9995
2 49196  87.9174 332.6884 0001650  83.7912 276.3408 13.18685905231858
0 ONEWEB-0585
1 54652U 22166L   26182.11486642  .00000099  00000-0  20862-3 0  9999
2 54652  87.9246 241.1992 0002109 101.4671 258.6700 13.21827047173363
0 STARLINK-34757
1 64850U 25152J   26182.11484668  .00005814  00000-0  40639-3 0  9998
2 64850  97.2942  35.7848 0002607  87.0327 273.1199 15.05664518 52487
0 STARLINK-33907
1 63769U 25089U   26182.11481677  .00018157  00000-0  66751-3 0  9999
2 63769  43.0011 124.7380 0001525 270.0946  89.9730 15.27590697 66254
0 STARLINK-32913
1 63098U 25037X   26182.11480426  .00007121  00000-0  60380-3 0  9999
2 63098  70.0008  68.3983 0003150 271.0661  89.0137 14.98340299 75607
0 STARLINK-37616
1 69040U 26101R   26182.11477704  .00025642  00000-0  79351-3 0  9996
2 69040  97.2838  36.7098 0002214 134.3215 225.8209 15.33458760  8704
0 STARLINK-2250
1 48593U 21041AS  26182.11476262  .00003740  00000-0  13216-3 0  9995
2 48593  53.1582 332.1945 0000775 104.6319 255.4768 15.31712556282460
0 STARLINK-35294
1 65755U 25216X   26182.11476190  .00037747  00000-0  12796-2 0  9997
2 65755  53.1567 165.7445 0001152  86.2909 273.8224 15.30212314 43919
0 STARLINK-37578
1 69451U 26127J   26182.11473970  .00214178  00000-0  13625-2 0  9996
2 69451  53.1560 192.9287 0001484 117.8076 242.3094 15.75302298  3607
0 ONEWEB-0555
1 56057U 23043M   26182.11469794  .00000174  00000-0  42133-3 0  9993
2 56057  87.9092 226.0056 0002446  83.3973 276.7436 13.16593394160792
0 STARLINK-31449
1 58966U 24031B   26182.11468653  .00000306  00000-0  22456-4 0  9999
2 58966  53.1601 129.5232 0001326  85.2489 274.8663 15.30194759133900
0 STARLINK-35015
1 65283U 25184L   26182.11464100  .00007581  00000-0  52848-3 0  9991
2 65283  97.2895 232.9053 0001597 125.2211 234.9166 15.05668825 48364
0 YAOGAN-43 O1C
1 60460U 24148C   26182.11463597  .00009504  00000-0  39613-3 0  9993
2 60460  34.9998  74.9098 0006651 315.7566  44.2616 15.22932053104266
0 QIANFAN-106
1 66048U 25233R   26182.11462285  .00000106  00000-0  14555-3 0  9997
2 66048  88.9981  41.7463 0002333  86.5692 273.5726 13.51014053 35060
0 FENGYUN 1C DEB
1 41823U 99025EYA 26182.11461882  .00002620  00000-0  11279-2 0  9995
2 41823  98.7044 248.6737 0052767  10.0924 350.1302 14.24716982502108
0 STARLINK-5585
1 57333U 23099F   26182.11458910 -.00000264  00000-0 -76474-7 0  9991
2 57333  43.0037 331.8128 0001137 279.1322  80.9401 15.27576600163421
0 ONEWEB-0177
1 48074U 21025AJ  26182.11451740  .00000065  00000-0  14378-3 0  9992
2 48074  87.8974 317.4507 0002112  97.3409 262.7961 13.13469235255500
0 STARLINK-35195
1 65606U 25207Q   26182.11448488  .00007425  00000-0  51780-3 0  9998
2 65606  97.2910 249.0516 0001341 101.5965 258.5413 15.05666159 45333
0 STARLINK-1063
1 44768U 19074BH  26182.11436446  .00090732  00000-0  14782-2 0  9993
2 44768  53.1540  43.0018 0001825 179.0714 181.0300 15.51901927365816
0 STARLINK-36871
1 68023U 26040J   26182.11432578  .00016041  00000-0  49793-3 0  9998
2 68023  97.2838 130.5800 0000320  91.3796 268.7484 15.33458430 18841
0 STARLINK-36988
1 67998U 26039N   26182.11431558  .00032162  00000-0  11719-2 0  9991
2 67998  43.0046 128.0790 0001913 280.6715  79.3921 15.27614321 19056
0 STARLINK-31936
1 59875U 24098T   26182.11431020 -.00000209  00000-0  19281-5 0  9996
2 59875  43.0055 325.1028 0001287 271.7385  88.3319 15.27575875119550
0 KUIPER-00078
1 64825U 25151K   26182.11427380  .00003322  00000-0  46457-3 0  9993
2 64825  51.8995 154.0290 0000658  82.5109 277.5928 14.79925552 52173
0 STARLINK-6210
1 56485U 23064AP  26182.11421561  .00000155  00000-0  20784-4 0  9999
2 56485  69.9989 198.2874 0003628 267.3183  92.7560 14.98330023172730
0 STARLINK-11189
1 60188U 24124F   26182.11414535 -.00000070  00000-0  42784-5 0  9997
2 60188  53.1599 322.4822 0000898  98.7387 261.3732 15.69713956114346
0 STARLINK-35433
1 65870U 25223S   26182.11412826  .00024493  00000-0  83584-3 0  9997
2 65870  53.1603 127.1737 0001478  87.8422 272.2747 15.30220226 41587
0 STARLINK-35378
1 65794U 25218D   26182.11408067  .00007502  00000-0  52306-3 0  9998
2 65794  97.2932  43.2002 0001747  84.2141 275.9286 15.05667873 42031
0 STARLINK-32867
1 62855U 25022B   26182.11407274  .00039377  00000-0  11702-2 0  9994
2 62855  53.1618 322.2087 0000886  96.2995 263.8109 15.34407916 79272
0 STARLINK-35194
1 65671U 25211V   26182.11405763  .00004967  00000-0  34765-3 0  9996
2 65671  97.2903 224.4532 0003611 151.3557 208.7869 15.05674050 44110
0 ONEWEB-0700
1 61606U 24188N   26182.11401248  .00000680  00000-0  19122-2 0  9993
2 61606  87.8837  33.4024 0002326  98.6361 261.5030 13.10376436 85121
0 STARLINK-3911
1 52565U 22051AJ  26182.11401134  .00000906  00000-0  75006-4 0  9994
2 52565  53.1613 329.7611 0001444  92.0965 268.0192 15.08832078228706
0 STARLINK-31746
1 59613U 24080N   26182.11400981  .00005612  00000-0  21343-3 0  9991
2 59613  43.0019 121.2788 0001472 285.2378  74.8311 15.27559172121834
0 STARLINK-3979
1 52608U 22052L   26182.11400809  .00000698  00000-0  61968-4 0  9991
2 52608  53.1598 129.7593 0001375  87.9179 272.1970 15.08834730227982
0 STARLINK-5522
1 56498U 23064BC  26182.11399447 -.00000195  00000-0 -85843-5 0  9994
2 56498  69.9994 178.4188 0003381 268.7278  91.3493 14.98330120173227
0 STARLINK-34440
1 64614U 25137W   26182.11398647  .00024764  00000-0  74181-3 0  9994
2 64614  53.1584 168.1782 0001277  78.2485 281.8660 15.34392287 58102
0 ONEWEB-0086
1 45456U 20020AJ  26182.11394966 -.00000559  00000-0 -16134-2 0  9994
2 45456  87.8887  18.2902 0001309 109.6804 250.4465 13.11416786304433
0 IRIDIUM 177
1 56727U 23068T   26182.11394441  .00001134  00000-0  14644-3 0  9993
2 56727  86.1975 322.1773 0002328  89.5434 270.6053 14.80043741168424
0 QIANFAN-194
1 69412U 26125M   26182.11388338  .00000479  00000-0  21270-3 0  9997
2 69412  88.9956 278.8543 0015825 134.1363 226.1133 14.21406871  3676
0 STARLINK-6324
1 57353U 23099AB  26182.11379735 -.00000142  00000-0  43505-5 0  9991
2 57353  43.0038 328.3911 0001251 266.3149  93.7560 15.27575594163460
0 STARLINK-37361
1 69134U 26110L   26182.11371992  .00027022  00000-0  83633-3 0  9994
2 69134  97.2814  18.3286 0002302  67.2508 292.8978 15.33444577  7745
0 STARLINK-35386
1 65862U 25223J   26182.11370566  .00041387  00000-0  12289-2 0  9996
2 65862  53.1591 126.4651 0000619  62.6654 297.4411 15.34411289 41587
